{"type": "FeatureCollection", "features": [ {"type": "Feature", "properties": {"norad_id": 66416, "name": "HULIANWANG DIGUI 13E", "group": "last-30-days", "lat": -49.19623420829352, "lon": -166.41098005772906, "alt_km": 815.543648283694, "timestamp": "2025-12-04T09:47:36.301468+00:00", "meta": {"OBJECT_NAME": "HULIANWANG DIGUI 13E", "OBJECT_ID": "2025-258E", "EPOCH": "2025-12-02T04:20:20.565312", "MEAN_MOTION": 14.23468154, "ECCENTRICITY": 0.0012751, "INCLINATION": 50.0045, "RA_OF_ASC_NODE": 306.4445, "ARG_OF_PERICENTER": 327.4493, "MEAN_ANOMALY": 32.5632, "EPHEMERIS_TYPE": 0, "CLASSIFICATION_TYPE": "U", "NORAD_CAT_ID": 66416, "ELEMENT_SET_NO": 999, "REV_AT_EPOCH": 315, "BSTAR": 0.00010445686, "MEAN_MOTION_DOT": 8e-07, "MEAN_MOTION_DDOT": 0}, "tle": {"line1": "1 66416U 25258E   25336.18079358  .00000080  00000+0  10446-3 0  9990", "line2": "2 66416  50.0045 306.4445 0012751 327.4493  32.5632 14.23468154  3151"}}, "geometry": {"type": "Point", "coordinates": [-166.41098005772906, -49.19623420829352]}}, {"type": "Feature", "properties": {"norad_id": 66417, "name": "HULIANWANG DIGUI 13F", "group": "last-30-days", "lat": -49.9489428010908, "lon": -155.71762220769236, "alt_km": 814.334817032739, "timestamp": "2025-12-04T09:47:36.301480+00:00", "meta": {"OBJECT_NAME": "HULIANWANG DIGUI 13F", "OBJECT_ID": "2025-258F", "EPOCH": "2025-12-04T00:06:47.750976", "MEAN_MOTION": 14.23478038, "ECCENTRICITY": 0.00123539, "INCLINATION": 49.9996, "RA_OF_ASC_NODE": 298.7354, "ARG_OF_PERICENTER": 331.9659, "MEAN_ANOMALY": 28.0587, "EPHEMERIS_TYPE": 0, "CLASSIFICATION_TYPE": "U", "NORAD_CAT_ID": 66417, "ELEMENT_SET_NO": 999, "REV_AT_EPOCH": 341, "BSTAR": 0.00015360842, "MEAN_MOTION_DOT": 1.92e-06, "MEAN_MOTION_DDOT": 0}, "tle": {"line1": "1 66417U 25258F   25338.00471934  .00000192  00000+0  15361-3 0  9995", "line2": "2 66417  49.9996 298.7354 0012353 331.9659  28.0587 14.23478038  3418"}}, "geometry": {"type": "Point", "coordinates": [-155.71762220769236, -49.9489428010908]}}, {"type": "Feature", "properties": {"norad_id": 66418, "name": "HULIANWANG DIGUI 13G", "group": "last-30-days", "lat": -46.11654965018482, "lon": -123.80736875339932, "alt_km": 810.9840241640122, "timestamp": "2025-12-04T09:47:36.301491+00:00", "meta": {"OBJECT_NAME": "HULIANWANG DIGUI 13G", "OBJECT_ID": "2025-258G", "EPOCH": "2025-12-04T00:00:45.067104", "MEAN_MOTION": 14.23489611, "ECCENTRICITY": 0.00124642, "INCLINATION": 50.0013, "RA_OF_ASC_NODE": 298.7141, "ARG_OF_PERICENTER": 327.8506, "MEAN_ANOMALY": 32.1645, "EPHEMERIS_TYPE": 0, "CLASSIFICATION_TYPE": "U", "NORAD_CAT_ID": 66418, "ELEMENT_SET_NO": 999, "REV_AT_EPOCH": 341, "BSTAR": 0.0001538293, "MEAN_MOTION_DOT": 1.93e-06, "MEAN_MOTION_DDOT": 0}, "tle": {"line1": "1 66418U 25258G   25338.00052161  .00000193  00000+0  15383-3 0  9998", "line2": "2 66418  50.0013 298.7141 0012464 327.8506  32.1645 14.23489611  3414"}}, "geometry": {"type": "Point", "coordinates": [-123.80736875339932, -46.11654965018482]}}, {"type": "Feature", "properties": {"norad_id": 66419, "name": "HULIANWANG DIGUI 13H", "group": "last-30-days", "lat": -42.829341270846, "lon": -114.12229960676565, "alt_km": 810.409924834983, "timestamp": "2025-12-04T09:47:36.301503+00:00", "meta": {"OBJECT_NAME": "HULIANWANG DIGUI 13H", "OBJECT_ID": "2025-258H", "EPOCH": "2025-12-03T23:58:36.617088", "MEAN_MOTION": 14.23506726, "ECCENTRICITY": 0.00121226, "INCLINATION": 50.0008, "RA_OF_ASC_NODE": 298.7034, "ARG_OF_PERICENTER": 329.1039, "MEAN_ANOMALY": 30.9159, "EPHEMERIS_TYPE": 0, "CLASSIFICATION_TYPE": "U", "NORAD_CAT_ID": 66419, "ELEMENT_SET_NO": 999, "REV_AT_EPOCH": 341, "BSTAR": 0.00015047502, "MEAN_MOTION_DOT": 1.85e-06, "MEAN_MOTION_DDOT": 0}, "tle": {"line1": "1 66419U 25258H   25337.99903492  .00000185  00000+0  15048-3 0  9997", "line2": "2 66419  50.0008 298.7034 0012122 329.1039  30.9159 14.23506726  3410"}}, "geometry": {"type": "Point", "coordinates": [-114.12229960676565, -42.829341270846]}}, {"type": "Feature", "properties": {"norad_id": 66420, "name": "HULIANWANG DIGUI 13J", "group": "last-30-days", "lat": -39.82735926385105, "lon": -107.46025513535844, "alt_km": 810.8791710609876, "timestamp": "2025-12-04T09:47:36.301513+00:00", "meta": {"OBJECT_NAME": "HULIANWANG DIGUI 13J", "OBJECT_ID": "2025-258J", "EPOCH": "2025-12-03T23:56:57.746112", "MEAN_MOTION": 14.23474226, "ECCENTRICITY": 0.00114469, "INCLINATION": 50.0022, "RA_OF_ASC_NODE": 298.7077, "ARG_OF_PERICENTER": 336.0431, "MEAN_ANOMALY": 23.9948, "EPHEMERIS_TYPE": 0, "CLASSIFICATION_TYPE": "U", "NORAD_CAT_ID": 66420, "ELEMENT_SET_NO": 999, "REV_AT_EPOCH": 340, "BSTAR": 0.0001473895, "MEAN_MOTION_DOT": 1.78e-06, "MEAN_MOTION_DDOT": 0}, "tle": {"line1": "1 66420U 25258J   25337.99789058  .00000178  00000+0  14739-3 0  9997", "line2": "2 66420  50.0022 298.7077 0011446 336.0431  23.9948 14.23474226  3402"}}, "geometry": {"type": "Point", "coordinates": [-107.46025513535844, -39.82735926385105]}}, {"type": "Feature", "properties": {"norad_id": 66421, "name": "CZ-12 R/B", "group": "last-30-days", "lat": 8.690470692189653, "lon": -58.52641151486555, "alt_km": 790.761294536771, "timestamp": "2025-12-04T09:47:36.301524+00:00", "meta": {"OBJECT_NAME": "CZ-12 R/B", "OBJECT_ID": "2025-258K", "EPOCH": "2025-12-03T23:45:48.036384", "MEAN_MOTION": 14.423167, "ECCENTRICITY": 0.00645689, "INCLINATION": 49.9964, "RA_OF_ASC_NODE": 295.913, "ARG_OF_PERICENTER": 217.9673, "MEAN_ANOMALY": 141.6687, "EPHEMERIS_TYPE": 0, "CLASSIFICATION_TYPE": "U", "NORAD_CAT_ID": 66421, "ELEMENT_SET_NO": 999, "REV_AT_EPOCH": 345, "BSTAR": 4.0078124e-05, "MEAN_MOTION_DOT": -3.4e-07, "MEAN_MOTION_DDOT": 0}, "tle": {"line1": "1 66421U 25258K   25337.99013931 -.00000034  00000+0  40078-4 0  9996", "line2": "2 66421  49.9964 295.9130 0064568 217.9673 141.6687 14.42316700  3458"}}, "geometry": {"type": "Point", "coordinates": [-58.52641151486555, 8.690470692189653]}}, {"type": "Feature", "properties": {"norad_id": 66422, "name": "STARLINK-35617", "group": "last-30-days", "lat": 38.53121583046748, "lon": -142.58815828519732, "alt_km": 430.64337857087594, "timestamp": "2025-12-04T09:47:36.301534+00:00", "meta": {"OBJECT_NAME": "STARLINK-35617", "OBJECT_ID": "2025-259A", "EPOCH": "2025-12-03T22:00:03.000096", "MEAN_MOTION": 15.45738272, "ECCENTRICITY": 0.00012902, "INCLINATION": 43.0004, "RA_OF_ASC_NODE": 98.9709, "ARG_OF_PERICENTER": 274.944, "MEAN_ANOMALY": 343.4445, "EPHEMERIS_TYPE": 0, "CLASSIFICATION_TYPE": "U", "NORAD_CAT_ID": 66422, "ELEMENT_SET_NO": 999, "REV_AT_EPOCH": 486, "BSTAR": -0.046341778, "MEAN_MOTION_DOT": -0.02041801, "MEAN_MOTION_DDOT": 0}, "tle": {"line1": "1 66422U 25259A   25337.91670139 -.02041801  00000+0 -46342-1 0  9996", "line2": "2 66422  43.0004  98.9709 0001290 274.9440 343.4445 15.45738272  4866"}}, "geometry": {"type": "Point", "coordinates": [-142.58815828519732, 38.53121583046748]}}, {"type": "Feature", "properties": {"norad_id": 66423, "name": "STARLINK-35618", "group": "last-30-days", "lat": 35.01208528744576, "lon": -132.64178177871773, "alt_km": 427.44662652291026, "timestamp": "2025-12-04T09:47:36.301544+00:00", "meta": {"OBJECT_NAME": "STARLINK-35618", "OBJECT_ID": "2025-259B", "EPOCH": "2025-12-03T22:00:03.000096", "MEAN_MOTION": 15.47092663, "ECCENTRICITY": 0.00015957, "INCLINATION": 43.0002, "RA_OF_ASC_NODE": 98.9549, "ARG_OF_PERICENTER": 270.1424, "MEAN_ANOMALY": 354.5986, "EPHEMERIS_TYPE": 0, "CLASSIFICATION_TYPE": "U", "NORAD_CAT_ID": 66423, "ELEMENT_SET_NO": 999, "REV_AT_EPOCH": 486, "BSTAR": -0.045159064, "MEAN_MOTION_DOT": -0.02081178, "MEAN_MOTION_DDOT": 0}, "tle": {"line1": "1 66423U 25259B   25337.91670139 -.02081178  00000+0 -45159-1 0  9993", "line2": "2 66423  43.0002  98.9549 0001595 270.1424 354.5986 15.47092663  4867"}}, "geometry": {"type": "Point", "coordinates": [-132.64178177871773, 35.01208528744576]}}, {"type": "Feature", "properties": {"norad_id": 66424, "name": "STARLINK-35588", "group": "last-30-days", "lat": 31.481147263224265, "lon": -124.99813562119347, "alt_km": 424.01070462159623, "timestamp": "2025-12-04T09:47:36.301556+00:00", "meta": {"OBJECT_NAME": "STARLINK-35588", "OBJECT_ID": "2025-259C", "EPOCH": "2025-12-03T22:00:03.000096", "MEAN_MOTION": 15.48416373, "ECCENTRICITY": 0.00014941, "INCLINATION": 43.0002, "RA_OF_ASC_NODE": 98.9434, "ARG_OF_PERICENTER": 273.7558, "MEAN_ANOMALY": 355.9342, "EPHEMERIS_TYPE": 0, "CLASSIFICATION_TYPE": "U", "NORAD_CAT_ID": 66424, "ELEMENT_SET_NO": 999, "REV_AT_EPOCH": 486, "BSTAR": -0.042975214, "MEAN_MOTION_DOT": -0.02075678, "MEAN_MOTION_DDOT": 0}, "tle": {"line1": "1 66424U 25259C   25337.91670139 -.02075678  00000+0 -42975-1 0  9995", "line2": "2 66424  43.0002  98.9434 0001494 273.7558 355.9342 15.48416373  4866"}}, "geometry": {"type": "Point", "coordinates": [-124.99813562119347, 31.481147263224265]}}, {"type": "Feature", "properties": {"norad_id": 66425, "name": "STARLINK-35555", "group": "last-30-days", "lat": 28.32714591581732, "lon": -119.27636048724143, "alt_km": 420.51196001784683, "timestamp": "2025-12-04T09:47:36.301567+00:00", "meta": {"OBJECT_NAME": "STARLINK-35555", "OBJECT_ID": "2025-259D", "EPOCH": "2025-12-03T22:00:03.000096", "MEAN_MOTION": 15.49756158, "ECCENTRICITY": 0.00014306, "INCLINATION": 43.0004, "RA_OF_ASC_NODE": 98.9329, "ARG_OF_PERICENTER": 273.0427, "MEAN_ANOMALY": 0.165, "EPHEMERIS_TYPE": 0, "CLASSIFICATION_TYPE": "U", "NORAD_CAT_ID": 66425, "ELEMENT_SET_NO": 999, "REV_AT_EPOCH": 486, "BSTAR": -0.041231317, "MEAN_MOTION_DOT": -0.02087146, "MEAN_MOTION_DDOT": 0}, "tle": {"line1": "1 66425U 25259D   25337.91670139 -.02087146  00000+0 -41231-1 0  9993", "line2": "2 66425  43.0004  98.9329 0001430 273.0427   0.1650 15.49756158  4860"}}, "geometry": {"type": "Point", "coordinates": [-119.27636048724143, 28.32714591581732]}}]}